IRIDIUM 57 [-]          
1 25273U 98019B   23354.60611344  .00000501  00000+0  16923-3 0  9997
2 25273  86.3965  13.3144 0002196  91.0500 269.0948 14.35019977346666
IRIDIUM 63 [-]          
1 25286U 98021B   23354.90509978  .00000728  00000+0  24630-3 0  9991
2 25286  86.3977 310.1240 0002117  91.9678 268.1761 14.35532530345731
IRIDIUM 69 [-]          
1 25319U 98026A   23354.94053301  .00000683  00000+0  21206-3 0  9997
2 25319  86.3980 325.0222 0003661  53.8349 306.3188 14.39712232344723
IRIDIUM 71 [-]          
1 25320U 98026B   23354.91114028  .00000789  00000+0  24419-3 0  9996
2 25320  86.3972 319.8428 0004398  85.5526 274.6176 14.40038319345232
IRIDIUM 73 [-]          
1 25344U 98032C   23354.85311958  .00000920  00000+0  23157-3 0  9998
2 25344  86.4416 277.5637 0002731  73.9209 286.2296 14.50197673351635
IRIDIUM 82 [-]          
1 25467U 98051A   23354.57977919  .00011395  00000+0  64240-3 0  9995
2 25467  86.3929  10.4196 0142847 156.3228 204.4670 15.04662055341439
IRIDIUM 2 [-]           
1 25527U 98066A   23354.69976645  .00047134  00000+0  88416-3 0  9997
2 25527  85.5173  57.3286 0002162 296.8806  63.2230 15.48446896379889
